XRISM                   
1 57800U 23137A   24222.54282436  .00010015  00000+0  74180-3 0  9991
2 57800  31.0037  32.8143 0009987  17.4617 342.6361 15.01867716 50637
